{
  "type": "FeatureCollection",
  "features": [
    {
      "type": "Feature",
      "properties": {
        "norad_id": 31073,
        "name": "FENGYUN 1C DEB",
        "group": "fengyun-1c-debris",
        "lat": -19.153123425499913,
        "lon": 17.978007061574587,
        "alt_km": 804.6859202808791,
        "timestamp": "2025-12-17T07:00:47.184945+00:00",
        "meta_object_name": "FENGYUN 1C DEB",
        "meta_object_id": "1999-025BFT",
        "meta_epoch": "2025-12-16T01:25:28.914816",
        "meta_mean_motion": 14.2481645,
        "meta_eccentricity": 0.00453207,
        "meta_inclination": 99.2204,
        "meta_ra_of_asc_node": 199.9182,
        "meta_arg_of_pericenter": 276.2324,
        "meta_mean_anomaly": 83.3692,
        "meta_ephemeris_type": 0,
        "meta_classification_type": "U",
        "meta_norad_cat_id": 31073,
        "meta_element_set_no": 999,
        "meta_rev_at_epoch": 97130,
        "meta_bstar": 0.00088446966,
        "meta_mean_motion_dot": 2.036e-05,
        "meta_mean_motion_ddot": 0,
        "tle_line1": "1 31073U 99025BFT 25350.05936244  .00002036  00000+0  88447-3 0  9991",
        "tle_line2": "2 31073  99.2204 199.9182 0045320 276.2324  83.3692 14.24816450971307"
      },
      "geometry": {
        "type": "Point",
        "coordinates": [
          17.978007061574587,
          -19.153123425499913
        ]
      }
    },
    {
      "type": "Feature",
      "properties": {
        "norad_id": 31074,
        "name": "FENGYUN 1C DEB",
        "group": "fengyun-1c-debris",
        "lat": -41.606030814404974,
        "lon": -85.64549757883258,
        "alt_km": 824.1378553051863,
        "timestamp": "2025-12-17T07:00:47.184956+00:00",
        "meta_object_name": "FENGYUN 1C DEB",
        "meta_object_id": "1999-025BFU",
        "meta_epoch": "2025-12-16T05:44:35.362752",
        "meta_mean_motion": 14.14268815,
        "meta_eccentricity": 0.00872183,
        "meta_inclination": 98.959,
        "meta_ra_of_asc_node": 265.2459,
        "meta_arg_of_pericenter": 255.9256,
        "meta_mean_anomaly": 103.221,
        "meta_ephemeris_type": 0,
        "meta_classification_type": "U",
        "meta_norad_cat_id": 31074,
        "meta_element_set_no": 999,
        "meta_rev_at_epoch": 95629,
        "meta_bstar": 0.0015690737,
        "meta_mean_motion_dot": 3.062e-05,
        "meta_mean_motion_ddot": 0,
        "tle_line1": "1 31074U 99025BFU 25350.23929818  .00003062  00000+0  15691-2 0  9991",
        "tle_line2": "2 31074  98.9590 265.2459 0087218 255.9256 103.2210 14.14268815956290"
      },
      "geometry": {
        "type": "Point",
        "coordinates": [
          -85.64549757883258,
          -41.606030814404974
        ]
      }
    },
    {
      "type": "Feature",
      "properties": {
        "norad_id": 31078,
        "name": "FENGYUN 1C DEB",
        "group": "fengyun-1c-debris",
        "lat": 54.19131451576263,
        "lon": 39.259234301976456,
        "alt_km": 798.37337090449,
        "timestamp": "2025-12-17T07:00:47.184967+00:00",
        "meta_object_name": "FENGYUN 1C DEB",
        "meta_object_id": "1999-025BFY",
        "meta_epoch": "2025-12-15T10:54:33.357600",
        "meta_mean_motion": 14.22084734,
        "meta_eccentricity": 0.0117132,
        "meta_inclination": 98.8675,
        "meta_ra_of_asc_node": 49.9086,
        "meta_arg_of_pericenter": 141.0899,
        "meta_mean_anomaly": 232.8229,
        "meta_ephemeris_type": 0,
        "meta_classification_type": "U",
        "meta_norad_cat_id": 31078,
        "meta_element_set_no": 999,
        "meta_rev_at_epoch": 96931,
        "meta_bstar": 0.00048192939,
        "meta_mean_motion_dot": 1.1e-05,
        "meta_mean_motion_ddot": 0,
        "tle_line1": "1 31078U 99025BFY 25349.45455275  .00001100  00000+0  48193-3 0  9993",
        "tle_line2": "2 31078  98.8675  49.9086 0117132 141.0899 232.8229 14.22084734969318"
      },
      "geometry": {
        "type": "Point",
        "coordinates": [
          39.259234301976456,
          54.19131451576263
        ]
      }
    },
    {
      "type": "Feature",
      "properties": {
        "norad_id": 31081,
        "name": "FENGYUN 1C DEB",
        "group": "fengyun-1c-debris",
        "lat": -65.11329196497398,
        "lon": 27.022722089073305,
        "alt_km": 870.4301202550332,
        "timestamp": "2025-12-17T07:00:47.184977+00:00",
        "meta_object_name": "FENGYUN 1C DEB",
        "meta_object_id": "1999-025BGB",
        "meta_epoch": "2025-12-16T07:28:53.092704",
        "meta_mean_motion": 14.06299429,
        "meta_eccentricity": 0.00474774,
        "meta_inclination": 98.7703,
        "meta_ra_of_asc_node": 6.6357,
        "meta_arg_of_pericenter": 220.7683,
        "meta_mean_anomaly": 151.0028,
        "meta_ephemeris_type": 0,
        "meta_classification_type": "U",
        "meta_norad_cat_id": 31081,
        "meta_element_set_no": 999,
        "meta_rev_at_epoch": 96511,
        "meta_bstar": -2.9451467e-05,
        "meta_mean_motion_dot": -9.2e-07,
        "meta_mean_motion_ddot": 0,
        "tle_line1": "1 31081U 99025BGB 25350.31172561 -.00000092  00000+0 -29451-4 0  9996",
        "tle_line2": "2 31081  98.7703   6.6357 0047477 220.7683 151.0028 14.06299429965118"
      },
      "geometry": {
        "type": "Point",
        "coordinates": [
          27.022722089073305,
          -65.11329196497398
        ]
      }
    },
    {
      "type": "Feature",
      "properties": {
        "norad_id": 31083,
        "name": "FENGYUN 1C DEB",
        "group": "fengyun-1c-debris",
        "lat": 3.9681072295615554,
        "lon": -70.44718867399989,
        "alt_km": 698.1937416204928,
        "timestamp": "2025-12-17T07:00:47.184988+00:00",
        "meta_object_name": "FENGYUN 1C DEB",
        "meta_object_id": "1999-025BGD",
        "meta_epoch": "2025-12-16T07:20:30.983424",
        "meta_mean_motion": 14.62126771,
        "meta_eccentricity": 0.00315124,
        "meta_inclination": 98.6463,
        "meta_ra_of_asc_node": 107.9165,
        "meta_arg_of_pericenter": 294.3272,
        "meta_mean_anomaly": 93.3439,
        "meta_ephemeris_type": 0,
        "meta_classification_type": "U",
        "meta_norad_cat_id": 31083,
        "meta_element_set_no": 999,
        "meta_rev_at_epoch": 97762,
        "meta_bstar": 0.0018590193,
        "meta_mean_motion_dot": 9.371e-05,
        "meta_mean_motion_ddot": 0,
        "tle_line1": "1 31083U 99025BGD 25350.30591416  .00009371  00000+0  18590-2 0  9998",
        "tle_line2": "2 31083  98.6463 107.9165 0031512 294.3272  93.3439 14.62126771977622"
      },
      "geometry": {
        "type": "Point",
        "coordinates": [
          -70.44718867399989,
          3.9681072295615554
        ]
      }
    },
    {
      "type": "Feature",
      "properties": {
        "norad_id": 31085,
        "name": "FENGYUN 1C DEB",
        "group": "fengyun-1c-debris",
        "lat": 38.803875093898206,
        "lon": 19.535708541775627,
        "alt_km": 832.1560476842469,
        "timestamp": "2025-12-17T07:00:47.184998+00:00",
        "meta_object_name": "FENGYUN 1C DEB",
        "meta_object_id": "1999-025BGF",
        "meta_epoch": "2025-12-16T00:51:13.504608",
        "meta_mean_motion": 14.30311137,
        "meta_eccentricity": 0.00871767,
        "meta_inclination": 98.984,
        "meta_ra_of_asc_node": 190.93,
        "meta_arg_of_pericenter": 8.5226,
        "meta_mean_anomaly": 144.3726,
        "meta_ephemeris_type": 0,
        "meta_classification_type": "U",
        "meta_norad_cat_id": 31085,
        "meta_element_set_no": 999,
        "meta_rev_at_epoch": 97763,
        "meta_bstar": 9.9027588e-05,
        "meta_mean_motion_dot": 2.21e-06,
        "meta_mean_motion_ddot": 0,
        "tle_line1": "1 31085U 99025BGF 25350.03557297  .00000221  00000+0  99028-4 0  9991",
        "tle_line2": "2 31085  98.9840 190.9300 0087176   8.5226 144.3726 14.30311137977634"
      },
      "geometry": {
        "type": "Point",
        "coordinates": [
          19.535708541775627,
          38.803875093898206
        ]
      }
    },
    {
      "type": "Feature",
      "properties": {
        "norad_id": 31087,
        "name": "FENGYUN 1C DEB",
        "group": "fengyun-1c-debris",
        "lat": 48.54978400577859,
        "lon": 2.32180355301858,
        "alt_km": 768.8657322787249,
        "timestamp": "2025-12-17T07:00:47.185008+00:00",
        "meta_object_name": "FENGYUN 1C DEB",
        "meta_object_id": "1999-025BGH",
        "meta_epoch": "2025-12-16T07:50:52.450944",
        "meta_mean_motion": 14.6034546,
        "meta_eccentricity": 0.01717787,
        "meta_inclination": 98.1022,
        "meta_ra_of_asc_node": 10.6598,
        "meta_arg_of_pericenter": 279.6243,
        "meta_mean_anomaly": 96.826,
        "meta_ephemeris_type": 0,
        "meta_classification_type": "U",
        "meta_norad_cat_id": 31087,
        "meta_element_set_no": 999,
        "meta_rev_at_epoch": 98822,
        "meta_bstar": 0.00059342809,
        "meta_mean_motion_dot": 3.476e-05,
        "meta_mean_motion_ddot": 0,
        "tle_line1": "1 31087U 99025BGH 25350.32699596  .00003476  00000+0  59343-3 0  9994",
        "tle_line2": "2 31087  98.1022  10.6598 0171778 279.6243  96.8260 14.60345460988229"
      },
      "geometry": {
        "type": "Point",
        "coordinates": [
          2.32180355301858,
          48.54978400577859
        ]
      }
    }
  ]
}